[{"OBJECT_NAME":"JILIN GAOFEN OBJECT F","OBJECT_ID":"2026-080F","EPOCH":"2026-04-22T07:12:02.279232","MEAN_MOTION":15.09472523,"ECCENTRICITY":0.00136731,"INCLINATION":97.6632,"RA_OF_ASC_NODE":187.9399,"ARG_OF_PERICENTER":253.6659,"MEAN_ANOMALY":106.3066,"EPHEMERIS_TYPE":0,"CLASSIFICATION_TYPE":"U","NORAD_CAT_ID":68696,"ELEMENT_SET_NO":999,"REV_AT_EPOCH":119,"BSTAR":7.9941074e-5,"MEAN_MOTION_DOT":1.217e-5,"MEAN_MOTION_DDOT":0},{"OBJECT_NAME":"JILIN GAOFEN OBJECT G","OBJECT_ID":"2026-080G","EPOCH":"2026-04-22T07:11:18.885696","MEAN_MOTION":15.09566725,"ECCENTRICITY":0.00141468,"INCLINATION":97.6673,"RA_OF_ASC_NODE":187.9421,"ARG_OF_PERICENTER":254.7084,"MEAN_ANOMALY":105.2581,"EPHEMERIS_TYPE":0,"CLASSIFICATION_TYPE":"U","NORAD_CAT_ID":68697,"ELEMENT_SET_NO":999,"REV_AT_EPOCH":119,"BSTAR":0.00019366799,"MEAN_MOTION_DOT":3.05e-5,"MEAN_MOTION_DDOT":0},{"OBJECT_NAME":"JILIN GAOFEN OBJECT H","OBJECT_ID":"2026-080H","EPOCH":"2026-04-22T07:11:00.398688","MEAN_MOTION":15.09605996,"ECCENTRICITY":0.0014104,"INCLINATION":97.665,"RA_OF_ASC_NODE":187.9421,"ARG_OF_PERICENTER":255.6064,"MEAN_ANOMALY":104.3599,"EPHEMERIS_TYPE":0,"CLASSIFICATION_TYPE":"U","NORAD_CAT_ID":68698,"ELEMENT_SET_NO":999,"REV_AT_EPOCH":119,"BSTAR":0.00029850024,"MEAN_MOTION_DOT":4.743e-5,"MEAN_MOTION_DDOT":0},{"OBJECT_NAME":"2026-083A","OBJECT_ID":"2026-083A","EPOCH":"2026-04-22T19:31:55.998048","MEAN_MOTION":15.22034875,"ECCENTRICITY":0.0064948,"INCLINATION":98.2658,"RA_OF_ASC_NODE":258.6685,"ARG_OF_PERICENTER":59.7924,"MEAN_ANOMALY":300.972,"EPHEMERIS_TYPE":0,"CLASSIFICATION_TYPE":"U","NORAD_CAT_ID":68753,"ELEMENT_SET_NO":999,"REV_AT_EPOCH":90,"BSTAR":0.00017123,"MEAN_MOTION_DOT":4.056e-5,"MEAN_MOTION_DDOT":0},{"OBJECT_NAME":"2026-083B","OBJECT_ID":"2026-083B","EPOCH":"2026-04-23T06:31:28.390368","MEAN_MOTION":15.06526201,"ECCENTRICITY":0.00088409,"INCLINATION":98.2523,"RA_OF_ASC_NODE":258.9592,"ARG_OF_PERICENTER":238.8855,"MEAN_ANOMALY":121.1503,"EPHEMERIS_TYPE":0,"CLASSIFICATION_TYPE":"U","NORAD_CAT_ID":68754,"ELEMENT_SET_NO":999,"REV_AT_EPOCH":95,"BSTAR":0.00013554699,"MEAN_MOTION_DOT":1.933e-5,"MEAN_MOTION_DDOT":0},{"OBJECT_NAME":"2026-083D","OBJECT_ID":"2026-083D","EPOCH":"2026-04-23T07:20:14.198496","MEAN_MOTION":15.31436094,"ECCENTRICITY":0.00135594,"INCLINATION":96.9054,"RA_OF_ASC_NODE":254.0615,"ARG_OF_PERICENTER":248.2369,"MEAN_ANOMALY":111.7431,"EPHEMERIS_TYPE":0,"CLASSIFICATION_TYPE":"U","NORAD_CAT_ID":68756,"ELEMENT_SET_NO":999,"REV_AT_EPOCH":96,"BSTAR":0.0002020319,"MEAN_MOTION_DOT":6.079e-5,"MEAN_MOTION_DDOT":0},{"OBJECT_NAME":"2026-083E","OBJECT_ID":"2026-083E","EPOCH":"2026-04-23T04:49:49.403136","MEAN_MOTION":15.2451081,"ECCENTRICITY":0.00596796,"INCLINATION":98.2497,"RA_OF_ASC_NODE":259.0562,"ARG_OF_PERICENTER":57.7514,"MEAN_ANOMALY":302.9485,"EPHEMERIS_TYPE":0,"CLASSIFICATION_TYPE":"U","NORAD_CAT_ID":68757,"ELEMENT_SET_NO":999,"REV_AT_EPOCH":95,"BSTAR":0.0042310796,"MEAN_MOTION_DOT":0.00110801,"MEAN_MOTION_DDOT":0},{"OBJECT_NAME":"2026-083F","OBJECT_ID":"2026-083F","EPOCH":"2026-04-23T06:31:28.527744","MEAN_MOTION":15.06578215,"ECCENTRICITY":0.00104474,"INCLINATION":96.9514,"RA_OF_ASC_NODE":252.9483,"ARG_OF_PERICENTER":234.2733,"MEAN_ANOMALY":125.7525,"EPHEMERIS_TYPE":0,"CLASSIFICATION_TYPE":"U","NORAD_CAT_ID":68758,"ELEMENT_SET_NO":999,"REV_AT_EPOCH":93,"BSTAR":0.00014592629,"MEAN_MOTION_DOT":2.109e-5,"MEAN_MOTION_DDOT":0},{"OBJECT_NAME":"2026-083G","OBJECT_ID":"2026-083G","EPOCH":"2026-04-23T06:31:14.109312","MEAN_MOTION":15.06619902,"ECCENTRICITY":0.00106279,"INCLINATION":96.9519,"RA_OF_ASC_NODE":252.9515,"ARG_OF_PERICENTER":234.3092,"MEAN_ANOMALY":125.7149,"EPHEMERIS_TYPE":0,"CLASSIFICATION_TYPE":"U","NORAD_CAT_ID":68759,"ELEMENT_SET_NO":999,"REV_AT_EPOCH":92,"BSTAR":0.00014743086,"MEAN_MOTION_DOT":2.134e-5,"MEAN_MOTION_DDOT":0},{"OBJECT_NAME":"DAQI-2","OBJECT_ID":"2026-084A","EPOCH":"2026-04-23T04:26:11.452128","MEAN_MOTION":14.57587708,"ECCENTRICITY":5.444e-5,"INCLINATION":98.2874,"RA_OF_ASC_NODE":187.5794,"ARG_OF_PERICENTER":266.1631,"MEAN_ANOMALY":93.9505,"EPHEMERIS_TYPE":0,"CLASSIFICATION_TYPE":"U","NORAD_CAT_ID":68760,"ELEMENT_SET_NO":999,"REV_AT_EPOCH":88,"BSTAR":1.265317e-5,"MEAN_MOTION_DOT":1.1e-7,"MEAN_MOTION_DDOT":0},{"OBJECT_NAME":"2026-083H","OBJECT_ID":"2026-083H","EPOCH":"2026-04-23T06:30:16.087392","MEAN_MOTION":15.06787768,"ECCENTRICITY":0.00113575,"INCLINATION":96.9514,"RA_OF_ASC_NODE":252.9487,"ARG_OF_PERICENTER":234.592,"MEAN_ANOMALY":125.4249,"EPHEMERIS_TYPE":0,"CLASSIFICATION_TYPE":"U","NORAD_CAT_ID":68762,"ELEMENT_SET_NO":999,"REV_AT_EPOCH":93,"BSTAR":0.00014803861,"MEAN_MOTION_DOT":2.153e-5,"MEAN_MOTION_DDOT":0},{"OBJECT_NAME":"2026-083J","OBJECT_ID":"2026-083J","EPOCH":"2026-04-23T06:30:00.823104","MEAN_MOTION":15.06831971,"ECCENTRICITY":0.00115518,"INCLINATION":96.9518,"RA_OF_ASC_NODE":252.9518,"ARG_OF_PERICENTER":234.6057,"MEAN_ANOMALY":125.4093,"EPHEMERIS_TYPE":0,"CLASSIFICATION_TYPE":"U","NORAD_CAT_ID":68763,"ELEMENT_SET_NO":999,"REV_AT_EPOCH":93,"BSTAR":0.00015007601,"MEAN_MOTION_DOT":2.186e-5,"MEAN_MOTION_DDOT":0},{"OBJECT_NAME":"2026-083K","OBJECT_ID":"2026-083K","EPOCH":"2026-04-23T06:29:41.757216","MEAN_MOTION":15.06887226,"ECCENTRICITY":0.00109121,"INCLINATION":96.9517,"RA_OF_ASC_NODE":252.9513,"ARG_OF_PERICENTER":230.5644,"MEAN_ANOMALY":129.462,"EPHEMERIS_TYPE":0,"CLASSIFICATION_TYPE":"U","NORAD_CAT_ID":68764,"ELEMENT_SET_NO":999,"REV_AT_EPOCH":93,"BSTAR":0.0001505745,"MEAN_MOTION_DOT":2.196e-5,"MEAN_MOTION_DDOT":0},{"OBJECT_NAME":"NAVSTAR 86 (USA 585)","OBJECT_ID":"2026-087A","EPOCH":"2026-04-22T08:11:45.644928","MEAN_MOTION":4.03281331,"ECCENTRICITY":0.5942075,"INCLINATION":54.9968,"RA_OF_ASC_NODE":210.8716,"ARG_OF_PERICENTER":270.2176,"MEAN_ANOMALY":26.1146,"EPHEMERIS_TYPE":0,"CLASSIFICATION_TYPE":"U","NORAD_CAT_ID":68791,"ELEMENT_SET_NO":999,"REV_AT_EPOCH":5,"BSTAR":0.0019778,"MEAN_MOTION_DOT":2.417e-5,"MEAN_MOTION_DDOT":0}]
