JILIN GAOFEN OBJECT F   
1 68696U 26080F   26112.30002638  .00001217  00000+0  79941-4 0  9999
2 68696  97.6632 187.9399 0013673 253.6659 106.3066 15.09472523  1193
JILIN GAOFEN OBJECT G   
1 68697U 26080G   26112.29952414  .00003050  00000+0  19367-3 0  9996
2 68697  97.6673 187.9421 0014146 254.7084 105.2581 15.09566725  1193
JILIN GAOFEN OBJECT H   
1 68698U 26080H   26112.29931017  .00004743  00000+0  29850-3 0  9991
2 68698  97.6650 187.9421 0014104 255.6064 104.3599 15.09605996  1194
2026-083A               
1 68753U 26083A   26112.81384257  .00004056  00000+0  17123-3 0  9999
2 68753  98.2658 258.6685 0064948  59.7924 300.9720 15.22034875   903
2026-083B               
1 68754U 26083B   26113.27185637  .00001933  00000+0  13555-3 0  9998
2 68754  98.2523 258.9592 0008840 238.8855 121.1503 15.06526201   955
2026-083D               
1 68756U 26083D   26113.30571989  .00006079  00000+0  20203-3 0  9997
2 68756  96.9054 254.0615 0013559 248.2369 111.7431 15.31436094   966
2026-083E               
1 68757U 26083E   26113.20126624  .00110801  00000+0  42311-2 0  9991
2 68757  98.2497 259.0562 0059679  57.7514 302.9485 15.24510810   950
2026-083F               
1 68758U 26083F   26113.27185796  .00002109  00000+0  14593-3 0  9997
2 68758  96.9514 252.9483 0010447 234.2733 125.7525 15.06578215   932
2026-083G               
1 68759U 26083G   26113.27169108  .00002134  00000+0  14743-3 0  9992
2 68759  96.9519 252.9515 0010627 234.3092 125.7149 15.06619902   923
DAQI-2                  
1 68760U 26084A   26113.18485477  .00000011  00000+0  12653-4 0  9996
2 68760  98.2874 187.5794 0000544 266.1631  93.9505 14.57587708   885
2026-083H               
1 68762U 26083H   26113.27101953  .00002153  00000+0  14804-3 0  9999
2 68762  96.9514 252.9487 0011357 234.5920 125.4249 15.06787768   938
2026-083J               
1 68763U 26083J   26113.27084286  .00002186  00000+0  15008-3 0  9992
2 68763  96.9518 252.9518 0011551 234.6057 125.4093 15.06831971   939
2026-083K               
1 68764U 26083K   26113.27062219  .00002196  00000+0  15057-3 0  9990
2 68764  96.9517 252.9513 0010912 230.5644 129.4620 15.06887226   935
NAVSTAR 86 (USA 585)    
1 68791U 26087A   26112.34150052  .00002417  00000+0  19778-2 0  9993
2 68791  54.9968 210.8716 5942075 270.2176  26.1146  4.03281331    56
